[{"OBJECT_NAME":"ALOS (DAICHI)","OBJECT_ID":"2006-002A","EPOCH":"2026-03-14T21:08:35.694816","MEAN_MOTION":14.69828892,"ECCENTRICITY":7.581e-5,"INCLINATION":98.1225,"RA_OF_ASC_NODE":29.8105,"ARG_OF_PERICENTER":66.0918,"MEAN_ANOMALY":294.0367,"EPHEMERIS_TYPE":0,"CLASSIFICATION_TYPE":"U","NORAD_CAT_ID":28931,"ELEMENT_SET_NO":999,"REV_AT_EPOCH":7424,"BSTAR":0.00027168904,"MEAN_MOTION_DOT":1.573e-5,"MEAN_MOTION_DDOT":0},{"OBJECT_NAME":"H-2A R/B","OBJECT_ID":"2006-002B","EPOCH":"2026-03-14T21:18:30.843072","MEAN_MOTION":15.16546125,"ECCENTRICITY":0.00520288,"INCLINATION":98.2411,"RA_OF_ASC_NODE":221.3592,"ARG_OF_PERICENTER":223.2419,"MEAN_ANOMALY":136.4722,"EPHEMERIS_TYPE":0,"CLASSIFICATION_TYPE":"U","NORAD_CAT_ID":28932,"ELEMENT_SET_NO":999,"REV_AT_EPOCH":9522,"BSTAR":0.00066959361,"MEAN_MOTION_DOT":0.00013455,"MEAN_MOTION_DDOT":0},{"OBJECT_NAME":"RESURS-DK 1","OBJECT_ID":"2006-021A","EPOCH":"2026-03-14T19:48:27.025920","MEAN_MOTION":15.12785899,"ECCENTRICITY":0.00013518,"INCLINATION":69.9325,"RA_OF_ASC_NODE":223.7373,"ARG_OF_PERICENTER":156.14,"MEAN_ANOMALY":203.9829,"EPHEMERIS_TYPE":0,"CLASSIFICATION_TYPE":"U","NORAD_CAT_ID":29228,"ELEMENT_SET_NO":999,"REV_AT_EPOCH":8830,"BSTAR":0.00023886139,"MEAN_MOTION_DOT":4.096e-5,"MEAN_MOTION_DDOT":0},{"OBJECT_NAME":"CZ-4B R/B","OBJECT_ID":"2006-046C","EPOCH":"2026-03-14T16:31:24.157920","MEAN_MOTION":15.16961709,"ECCENTRICITY":0.00317674,"INCLINATION":97.559,"RA_OF_ASC_NODE":118.5842,"ARG_OF_PERICENTER":249.199,"MEAN_ANOMALY":110.5839,"EPHEMERIS_TYPE":0,"CLASSIFICATION_TYPE":"U","NORAD_CAT_ID":29507,"ELEMENT_SET_NO":999,"REV_AT_EPOCH":6080,"BSTAR":0.00030847429,"MEAN_MOTION_DOT":6.097e-5,"MEAN_MOTION_DDOT":0},{"OBJECT_NAME":"CZ-2C R/B","OBJECT_ID":"2007-010B","EPOCH":"2026-03-14T22:32:27.435552","MEAN_MOTION":14.20248395,"ECCENTRICITY":0.00578464,"INCLINATION":98.3983,"RA_OF_ASC_NODE":186.955,"ARG_OF_PERICENTER":279.0614,"MEAN_ANOMALY":80.402,"EPHEMERIS_TYPE":0,"CLASSIFICATION_TYPE":"U","NORAD_CAT_ID":31114,"ELEMENT_SET_NO":999,"REV_AT_EPOCH":98046,"BSTAR":8.6999902e-5,"MEAN_MOTION_DOT":1.47e-6,"MEAN_MOTION_DDOT":0},{"OBJECT_NAME":"COSMO-SKYMED 1","OBJECT_ID":"2007-023A","EPOCH":"2026-03-14T22:42:59.017824","MEAN_MOTION":14.96585322,"ECCENTRICITY":0.00016123,"INCLINATION":97.8883,"RA_OF_ASC_NODE":265.0209,"ARG_OF_PERICENTER":94.2404,"MEAN_ANOMALY":265.9002,"EPHEMERIS_TYPE":0,"CLASSIFICATION_TYPE":"U","NORAD_CAT_ID":31598,"ELEMENT_SET_NO":999,"REV_AT_EPOCH":1569,"BSTAR":0.00045841687,"MEAN_MOTION_DOT":5.161e-5,"MEAN_MOTION_DDOT":0},{"OBJECT_NAME":"COSMOS 2428","OBJECT_ID":"2007-029A","EPOCH":"2026-03-14T16:51:58.224672","MEAN_MOTION":14.12947092,"ECCENTRICITY":0.00093226,"INCLINATION":70.9438,"RA_OF_ASC_NODE":192.8215,"ARG_OF_PERICENTER":272.0203,"MEAN_ANOMALY":87.9851,"EPHEMERIS_TYPE":0,"CLASSIFICATION_TYPE":"U","NORAD_CAT_ID":31792,"ELEMENT_SET_NO":999,"REV_AT_EPOCH":96480,"BSTAR":3.2487032e-5,"MEAN_MOTION_DOT":1.3e-7,"MEAN_MOTION_DDOT":0},{"OBJECT_NAME":"SL-16 R/B","OBJECT_ID":"2007-029B","EPOCH":"2026-03-14T23:00:52.482528","MEAN_MOTION":14.14835575,"ECCENTRICITY":0.00022705,"INCLINATION":70.9758,"RA_OF_ASC_NODE":161.3093,"ARG_OF_PERICENTER":276.2312,"MEAN_ANOMALY":256.9391,"EPHEMERIS_TYPE":0,"CLASSIFICATION_TYPE":"U","NORAD_CAT_ID":31793,"ELEMENT_SET_NO":999,"REV_AT_EPOCH":96611,"BSTAR":0.00015756241,"MEAN_MOTION_DOT":2.56e-6,"MEAN_MOTION_DDOT":0},{"OBJECT_NAME":"KORONAS-FOTON","OBJECT_ID":"2009-003A","EPOCH":"2026-03-14T19:42:52.028064","MEAN_MOTION":15.43443203,"ECCENTRICITY":0.0011621,"INCLINATION":82.4273,"RA_OF_ASC_NODE":270.5417,"ARG_OF_PERICENTER":132.5611,"MEAN_ANOMALY":227.662,"EPHEMERIS_TYPE":0,"CLASSIFICATION_TYPE":"U","NORAD_CAT_ID":33504,"ELEMENT_SET_NO":999,"REV_AT_EPOCH":94653,"BSTAR":0.00036279991,"MEAN_MOTION_DOT":0.00016311,"MEAN_MOTION_DDOT":0},{"OBJECT_NAME":"CZ-2C R/B","OBJECT_ID":"2011-030B","EPOCH":"2026-03-14T21:08:21.520032","MEAN_MOTION":14.81244758,"ECCENTRICITY":0.00519273,"INCLINATION":97.8547,"RA_OF_ASC_NODE":31.0398,"ARG_OF_PERICENTER":335.1048,"MEAN_ANOMALY":84.8998,"EPHEMERIS_TYPE":0,"CLASSIFICATION_TYPE":"U","NORAD_CAT_ID":37731,"ELEMENT_SET_NO":999,"REV_AT_EPOCH":79086,"BSTAR":0.00024617387,"MEAN_MOTION_DOT":1.908e-5,"MEAN_MOTION_DDOT":0},{"OBJECT_NAME":"H-2A R/B","OBJECT_ID":"2012-025E","EPOCH":"2026-03-14T21:09:25.319520","MEAN_MOTION":14.95212191,"ECCENTRICITY":0.0043252,"INCLINATION":98.4734,"RA_OF_ASC_NODE":41.3436,"ARG_OF_PERICENTER":296.9131,"MEAN_ANOMALY":62.7671,"EPHEMERIS_TYPE":0,"CLASSIFICATION_TYPE":"U","NORAD_CAT_ID":38341,"ELEMENT_SET_NO":999,"REV_AT_EPOCH":74899,"BSTAR":0.00032145716,"MEAN_MOTION_DOT":3.53e-5,"MEAN_MOTION_DDOT":0},{"OBJECT_NAME":"SHIJIAN-16 (SJ-16)","OBJECT_ID":"2013-057A","EPOCH":"2026-03-14T23:48:37.502208","MEAN_MOTION":14.92372929,"ECCENTRICITY":0.00153858,"INCLINATION":74.9734,"RA_OF_ASC_NODE":175.0506,"ARG_OF_PERICENTER":98.8096,"MEAN_ANOMALY":261.4835,"EPHEMERIS_TYPE":0,"CLASSIFICATION_TYPE":"U","NORAD_CAT_ID":39358,"ELEMENT_SET_NO":999,"REV_AT_EPOCH":67229,"BSTAR":0.00015761412,"MEAN_MOTION_DOT":1.587e-5,"MEAN_MOTION_DDOT":0},{"OBJECT_NAME":"SL-4 R/B","OBJECT_ID":"2014-021B","EPOCH":"2026-03-14T22:51:44.802432","MEAN_MOTION":15.39367433,"ECCENTRICITY":0.00970538,"INCLINATION":51.6066,"RA_OF_ASC_NODE":311.6008,"ARG_OF_PERICENTER":122.184,"MEAN_ANOMALY":238.8602,"EPHEMERIS_TYPE":0,"CLASSIFICATION_TYPE":"U","NORAD_CAT_ID":39679,"ELEMENT_SET_NO":999,"REV_AT_EPOCH":65708,"BSTAR":0.00038194554,"MEAN_MOTION_DOT":0.00017476,"MEAN_MOTION_DDOT":0},{"OBJECT_NAME":"ALOS-2","OBJECT_ID":"2014-029A","EPOCH":"2026-03-14T22:14:00.356064","MEAN_MOTION":14.79524436,"ECCENTRICITY":0.00014548,"INCLINATION":97.9189,"RA_OF_ASC_NODE":172.4479,"ARG_OF_PERICENTER":94.1432,"MEAN_ANOMALY":265.9946,"EPHEMERIS_TYPE":0,"CLASSIFICATION_TYPE":"U","NORAD_CAT_ID":39766,"ELEMENT_SET_NO":999,"REV_AT_EPOCH":63764,"BSTAR":0.00013365996,"MEAN_MOTION_DOT":9.48e-6,"MEAN_MOTION_DDOT":0},{"OBJECT_NAME":"YAOGAN-29","OBJECT_ID":"2015-069A","EPOCH":"2026-03-14T23:45:20.547360","MEAN_MOTION":14.83002611,"ECCENTRICITY":0.00015948,"INCLINATION":98.0145,"RA_OF_ASC_NODE":102.4336,"ARG_OF_PERICENTER":28.2596,"MEAN_ANOMALY":331.8703,"EPHEMERIS_TYPE":0,"CLASSIFICATION_TYPE":"U","NORAD_CAT_ID":41038,"ELEMENT_SET_NO":999,"REV_AT_EPOCH":55666,"BSTAR":6.5525988e-5,"MEAN_MOTION_DOT":4.78e-6,"MEAN_MOTION_DDOT":0},{"OBJECT_NAME":"ASTRO-H (HITOMI)","OBJECT_ID":"2016-012A","EPOCH":"2026-03-14T22:08:02.816448","MEAN_MOTION":15.10044563,"ECCENTRICITY":0.00096905,"INCLINATION":31.0005,"RA_OF_ASC_NODE":322.781,"ARG_OF_PERICENTER":23.2394,"MEAN_ANOMALY":336.8681,"EPHEMERIS_TYPE":0,"CLASSIFICATION_TYPE":"U","NORAD_CAT_ID":41337,"ELEMENT_SET_NO":999,"REV_AT_EPOCH":55302,"BSTAR":0.00022076778,"MEAN_MOTION_DOT":3.778e-5,"MEAN_MOTION_DDOT":0}]
