ALOS (DAICHI)           
1 28931U 06002A   26073.88096869  .00001573  00000+0  27169-3 0  9996
2 28931  98.1225  29.8105 0000758  66.0918 294.0367 14.69828892 74242
H-2A R/B                
1 28932U 06002B   26073.88785698  .00013455  00000+0  66959-3 0  9994
2 28932  98.2411 221.3592 0052028 223.2419 136.4722 15.16546125 95224
RESURS-DK 1             
1 29228U 06021A   26073.82531280  .00004096  00000+0  23886-3 0  9997
2 29228  69.9325 223.7373 0001351 156.1400 203.9829 15.12785899 88300
CZ-4B R/B               
1 29507U 06046C   26073.68847405  .00006097  00000+0  30847-3 0  9995
2 29507  97.5590 118.5842 0031767 249.1990 110.5839 15.16961709 60803
CZ-2C R/B               
1 31114U 07010B   26073.93920643  .00000147  00000+0  87000-4 0  9992
2 31114  98.3983 186.9550 0057846 279.0614  80.4020 14.20248395980464
COSMO-SKYMED 1          
1 31598U 07023A   26073.94651641  .00005161  00000+0  45842-3 0  9990
2 31598  97.8883 265.0209 0001612  94.2404 265.9002 14.96585322 15698
COSMOS 2428             
1 31792U 07029A   26073.70275723  .00000013  00000+0  32487-4 0  9992
2 31792  70.9438 192.8215 0009322 272.0203  87.9851 14.12947092964809
SL-16 R/B               
1 31793U 07029B   26073.95894077  .00000256  00000+0  15756-3 0  9997
2 31793  70.9758 161.3093 0002270 276.2312 256.9391 14.14835575966119
KORONAS-FOTON           
1 33504U 09003A   26073.82143551  .00016311  00000+0  36280-3 0  9997
2 33504  82.4273 270.5417 0011621 132.5611 227.6620 15.43443203946530
CZ-2C R/B               
1 37731U 11030B   26073.88080463  .00001908  00000+0  24617-3 0  9991
2 37731  97.8547  31.0398 0051927 335.1048  84.8998 14.81244758790865
H-2A R/B                
1 38341U 12025E   26073.88154305  .00003530  00000+0  32146-3 0  9990
2 38341  98.4734  41.3436 0043252 296.9131  62.7671 14.95212191748995
SHIJIAN-16 (SJ-16)      
1 39358U 13057A   26073.99210072  .00001587  00000+0  15761-3 0  9995
2 39358  74.9734 175.0506 0015385  98.8096 261.4835 14.92372929672293
SL-4 R/B                
1 39679U 14021B   26073.95260188  .00017476  00000+0  38195-3 0  9992
2 39679  51.6066 311.6008 0097053 122.1840 238.8602 15.39367433657080
ALOS-2                  
1 39766U 14029A   26073.92639301  .00000948  00000+0  13366-3 0  9990
2 39766  97.9189 172.4479 0001454  94.1432 265.9946 14.79524436637649
YAOGAN-29               
1 41038U 15069A   26073.98982115  .00000478  00000+0  65526-4 0  9994
2 41038  98.0145 102.4336 0001594  28.2596 331.8703 14.83002611556664
ASTRO-H (HITOMI)        
1 41337U 16012A   26073.92225482  .00003778  00000+0  22077-3 0  9995
2 41337  31.0005 322.7810 0009690  23.2394 336.8681 15.10044563553028
